{"type": "FeatureCollection", "features": [ {"type": "Feature", "properties": {"norad_id": 33799, "name": "COSMOS 2251 DEB", "group": "cosmos-2251-debris", "lat": -44.35815027506519, "lon": 72.26083821555788, "alt_km": 652.1194721729244, "timestamp": "2025-12-09T07:41:33.604056+00:00", "meta": {"OBJECT_NAME": "COSMOS 2251 DEB", "OBJECT_ID": "1993-036AQ", "EPOCH": "2025-12-08T18:00:12.146112", "MEAN_MOTION": 14.79481859, "ECCENTRICITY": 0.00237886, "INCLINATION": 74.0324, "RA_OF_ASC_NODE": 89.6423, "ARG_OF_PERICENTER": 161.7308, "MEAN_ANOMALY": 354.8729, "EPHEMERIS_TYPE": 0, "CLASSIFICATION_TYPE": "U", "NORAD_CAT_ID": 33799, "ELEMENT_SET_NO": 999, "REV_AT_EPOCH": 88752, "BSTAR": 0.0017589241, "MEAN_MOTION_DOT": 0.000132, "MEAN_MOTION_DDOT": 0}, "tle": {"line1": "1 33799U 93036AQ  25342.75014058  .00013200  00000+0  17589-2 0  9995", "line2": "2 33799  74.0324  89.6423 0023788 161.7308 354.8729 14.79481859887523"}}, "geometry": {"type": "Point", "coordinates": [72.26083821555788, -44.35815027506519]}}, {"type": "Feature", "properties": {"norad_id": 33805, "name": "COSMOS 2251 DEB", "group": "cosmos-2251-debris", "lat": -5.563600934877644, "lon": -43.762359817386894, "alt_km": 741.6481448922023, "timestamp": "2025-12-09T07:41:33.604067+00:00", "meta": {"OBJECT_NAME": "COSMOS 2251 DEB", "OBJECT_ID": "1993-036AW", "EPOCH": "2025-12-08T23:29:04.807104", "MEAN_MOTION": 14.57841944, "ECCENTRICITY": 0.00603328, "INCLINATION": 74.0318, "RA_OF_ASC_NODE": 318.4862, "ARG_OF_PERICENTER": 148.549, "MEAN_ANOMALY": 211.9306, "EPHEMERIS_TYPE": 0, "CLASSIFICATION_TYPE": "U", "NORAD_CAT_ID": 33805, "ELEMENT_SET_NO": 999, "REV_AT_EPOCH": 89172, "BSTAR": 0.00034081783, "MEAN_MOTION_DOT": 1.57e-05, "MEAN_MOTION_DDOT": 0}, "tle": {"line1": "1 33805U 93036AW  25342.97852786  .00001570  00000+0  34082-3 0  9990", "line2": "2 33805  74.0318 318.4862 0060332 148.5490 211.9306 14.57841944891727"}}, "geometry": {"type": "Point", "coordinates": [-43.762359817386894, -5.563600934877644]}}, {"type": "Feature", "properties": {"norad_id": 33811, "name": "COSMOS 2251 DEB", "group": "cosmos-2251-debris", "lat": 0.29441998785703316, "lon": -50.168020606556034, "alt_km": 535.5449656333785, "timestamp": "2025-12-09T07:41:33.604078+00:00", "meta": {"OBJECT_NAME": "COSMOS 2251 DEB", "OBJECT_ID": "1993-036BC", "EPOCH": "2025-12-09T00:00:25.572672", "MEAN_MOTION": 15.05078279, "ECCENTRICITY": 0.00306769, "INCLINATION": 73.8382, "RA_OF_ASC_NODE": 310.4102, "ARG_OF_PERICENTER": 31.7185, "MEAN_ANOMALY": 34.5032, "EPHEMERIS_TYPE": 0, "CLASSIFICATION_TYPE": "U", "NORAD_CAT_ID": 33811, "ELEMENT_SET_NO": 999, "REV_AT_EPOCH": 89962, "BSTAR": 0.0014569643, "MEAN_MOTION_DOT": 0.0002096, "MEAN_MOTION_DDOT": 0}, "tle": {"line1": "1 33811U 93036BC  25343.00029598  .00020960  00000+0  14570-2 0  9992", "line2": "2 33811  73.8382 310.4102 0030676  31.7185  34.5032 15.05078279899622"}}, "geometry": {"type": "Point", "coordinates": [-50.168020606556034, 0.29441998785703316]}}, {"type": "Feature", "properties": {"norad_id": 33815, "name": "COSMOS 2251 DEB", "group": "cosmos-2251-debris", "lat": -71.69671870314131, "lon": 123.2797718006607, "alt_km": 521.3168384400396, "timestamp": "2025-12-09T07:41:33.604089+00:00", "meta": {"OBJECT_NAME": "COSMOS 2251 DEB", "OBJECT_ID": "1993-036BG", "EPOCH": "2025-12-08T23:04:54.503616", "MEAN_MOTION": 15.16639862, "ECCENTRICITY": 0.00030177, "INCLINATION": 73.9528, "RA_OF_ASC_NODE": 184.5101, "ARG_OF_PERICENTER": 229.9077, "MEAN_ANOMALY": 250.8357, "EPHEMERIS_TYPE": 0, "CLASSIFICATION_TYPE": "U", "NORAD_CAT_ID": 33815, "ELEMENT_SET_NO": 999, "REV_AT_EPOCH": 88313, "BSTAR": 0.006461729, "MEAN_MOTION_DOT": 0.00128686, "MEAN_MOTION_DDOT": 0}, "tle": {"line1": "1 33815U 93036BG  25342.96174194  .00128686  00000+0  64617-2 0  9994", "line2": "2 33815  73.9528 184.5101 0003017 229.9077 250.8357 15.16639862883133"}}, "geometry": {"type": "Point", "coordinates": [123.2797718006607, -71.69671870314131]}}, {"type": "Feature", "properties": {"norad_id": 33816, "name": "COSMOS 2251 DEB", "group": "cosmos-2251-debris", "lat": 4.89596324124148, "lon": 112.60914001163295, "alt_km": 1051.4887088763198, "timestamp": "2025-12-09T07:41:33.604099+00:00", "meta": {"OBJECT_NAME": "COSMOS 2251 DEB", "OBJECT_ID": "1993-036BH", "EPOCH": "2025-12-08T19:30:15.806880", "MEAN_MOTION": 13.81776004, "ECCENTRICITY": 0.02649297, "INCLINATION": 73.8945, "RA_OF_ASC_NODE": 112.0515, "ARG_OF_PERICENTER": 125.7474, "MEAN_ANOMALY": 236.8604, "EPHEMERIS_TYPE": 0, "CLASSIFICATION_TYPE": "U", "NORAD_CAT_ID": 33816, "ELEMENT_SET_NO": 999, "REV_AT_EPOCH": 84619, "BSTAR": 0.00097318108, "MEAN_MOTION_DOT": 1.339e-05, "MEAN_MOTION_DDOT": 0}, "tle": {"line1": "1 33816U 93036BH  25342.81268295  .00001339  00000+0  97318-3 0  9995", "line2": "2 33816  73.8945 112.0515 0264929 125.7474 236.8604 13.81776004846190"}}, "geometry": {"type": "Point", "coordinates": [112.60914001163295, 4.89596324124148]}}, {"type": "Feature", "properties": {"norad_id": 33818, "name": "COSMOS 2251 DEB", "group": "cosmos-2251-debris", "lat": -47.46766414649346, "lon": 11.44042569770216, "alt_km": 528.6534985610697, "timestamp": "2025-12-09T07:41:33.604110+00:00", "meta": {"OBJECT_NAME": "COSMOS 2251 DEB", "OBJECT_ID": "1993-036BK", "EPOCH": "2025-12-08T23:26:25.440576", "MEAN_MOTION": 15.12033467, "ECCENTRICITY": 0.00280489, "INCLINATION": 74.0755, "RA_OF_ASC_NODE": 174.0167, "ARG_OF_PERICENTER": 164.1684, "MEAN_ANOMALY": 354.6151, "EPHEMERIS_TYPE": 0, "CLASSIFICATION_TYPE": "U", "NORAD_CAT_ID": 33818, "ELEMENT_SET_NO": 999, "REV_AT_EPOCH": 89805, "BSTAR": 0.0025467031, "MEAN_MOTION_DOT": 0.00044425, "MEAN_MOTION_DDOT": 0}, "tle": {"line1": "1 33818U 93036BK  25342.97668334  .00044425  00000+0  25467-2 0  9990", "line2": "2 33818  74.0755 174.0167 0028048 164.1684 354.6151 15.12033467898058"}}, "geometry": {"type": "Point", "coordinates": [11.44042569770216, -47.46766414649346]}}, {"type": "Feature", "properties": {"norad_id": 33819, "name": "COSMOS 2251 DEB", "group": "cosmos-2251-debris", "lat": -70.48590423227245, "lon": 89.16920037934771, "alt_km": 855.0170636010089, "timestamp": "2025-12-09T07:41:33.604121+00:00", "meta": {"OBJECT_NAME": "COSMOS 2251 DEB", "OBJECT_ID": "1993-036BL", "EPOCH": "2025-12-08T19:06:06.865920", "MEAN_MOTION": 14.32203322, "ECCENTRICITY": 0.00889375, "INCLINATION": 74.1791, "RA_OF_ASC_NODE": 216.9791, "ARG_OF_PERICENTER": 79.5134, "MEAN_ANOMALY": 355.115, "EPHEMERIS_TYPE": 0, "CLASSIFICATION_TYPE": "U", "NORAD_CAT_ID": 33819, "ELEMENT_SET_NO": 999, "REV_AT_EPOCH": 87439, "BSTAR": 0.0011045221, "MEAN_MOTION_DOT": 3.086e-05, "MEAN_MOTION_DDOT": 0}, "tle": {"line1": "1 33819U 93036BL  25342.79591280  .00003086  00000+0  11045-2 0  9991", "line2": "2 33819  74.1791 216.9791 0088937  79.5134 355.1150 14.32203322874397"}}, "geometry": {"type": "Point", "coordinates": [89.16920037934771, -70.48590423227245]}}, {"type": "Feature", "properties": {"norad_id": 33821, "name": "COSMOS 2251 DEB", "group": "cosmos-2251-debris", "lat": -50.70761148900183, "lon": -9.44956657370797, "alt_km": 473.5997209143752, "timestamp": "2025-12-09T07:41:33.604132+00:00", "meta": {"OBJECT_NAME": "COSMOS 2251 DEB", "OBJECT_ID": "1993-036BN", "EPOCH": "2025-12-08T21:13:35.685984", "MEAN_MOTION": 15.2494624, "ECCENTRICITY": 0.00528386, "INCLINATION": 74.0299, "RA_OF_ASC_NODE": 150.9851, "ARG_OF_PERICENTER": 185.4158, "MEAN_ANOMALY": 174.6478, "EPHEMERIS_TYPE": 0, "CLASSIFICATION_TYPE": "U", "NORAD_CAT_ID": 33821, "ELEMENT_SET_NO": 999, "REV_AT_EPOCH": 74942, "BSTAR": 0.0014441641, "MEAN_MOTION_DOT": 0.00037598, "MEAN_MOTION_DDOT": 0}, "tle": {"line1": "1 33821U 93036BN  25342.88444081  .00037598  00000+0  14442-2 0  9999", "line2": "2 33821  74.0299 150.9851 0052838 185.4158 174.6478 15.24946240749427"}}, "geometry": {"type": "Point", "coordinates": [-9.44956657370797, -50.70761148900183]}}, {"type": "Feature", "properties": {"norad_id": 33822, "name": "COSMOS 2251 DEB", "group": "cosmos-2251-debris", "lat": -36.0824955620791, "lon": -172.29554354076564, "alt_km": 825.4691649032575, "timestamp": "2025-12-09T07:41:33.604143+00:00", "meta": {"OBJECT_NAME": "COSMOS 2251 DEB", "OBJECT_ID": "1993-036BP", "EPOCH": "2025-12-08T23:56:56.449248", "MEAN_MOTION": 14.13041565, "ECCENTRICITY": 0.01536405, "INCLINATION": 74.0692, "RA_OF_ASC_NODE": 200.2874, "ARG_OF_PERICENTER": 247.4971, "MEAN_ANOMALY": 232.4599, "EPHEMERIS_TYPE": 0, "CLASSIFICATION_TYPE": "U", "NORAD_CAT_ID": 33822, "ELEMENT_SET_NO": 999, "REV_AT_EPOCH": 86001, "BSTAR": 0.001470442, "MEAN_MOTION_DOT": 3.045e-05, "MEAN_MOTION_DDOT": 0}, "tle": {"line1": "1 33822U 93036BP  25342.99787557  .00003045  00000+0  14704-2 0  9991", "line2": "2 33822  74.0692 200.2874 0153640 247.4971 232.4599 14.13041565860013"}}, "geometry": {"type": "Point", "coordinates": [-172.29554354076564, -36.0824955620791]}}, {"type": "Feature", "properties": {"norad_id": 33823, "name": "COSMOS 2251 DEB", "group": "cosmos-2251-debris", "lat": -40.45671298957617, "lon": 140.97848053424542, "alt_km": 780.1521445172821, "timestamp": "2025-12-09T07:41:33.604154+00:00", "meta": {"OBJECT_NAME": "COSMOS 2251 DEB", "OBJECT_ID": "1993-036BQ", "EPOCH": "2025-12-08T22:10:27.782688", "MEAN_MOTION": 13.98935381, "ECCENTRICITY": 0.0209297, "INCLINATION": 73.8094, "RA_OF_ASC_NODE": 156.0181, "ARG_OF_PERICENTER": 281.7986, "MEAN_ANOMALY": 197.8147, "EPHEMERIS_TYPE": 0, "CLASSIFICATION_TYPE": "U", "NORAD_CAT_ID": 33823, "ELEMENT_SET_NO": 999, "REV_AT_EPOCH": 85556, "BSTAR": 0.00098245555, "MEAN_MOTION_DOT": 1.684e-05, "MEAN_MOTION_DDOT": 0}, "tle": {"line1": "1 33823U 93036BQ  25342.92393267  .00001684  00000+0  98246-3 0  9997", "line2": "2 33823  73.8094 156.0181 0209297 281.7986 197.8147 13.98935381855560"}}, "geometry": {"type": "Point", "coordinates": [140.97848053424542, -40.45671298957617]}}]}